{
  "type": "FeatureCollection",
  "features": [
    {
      "type": "Feature",
      "properties": {
        "GID_2": "PHL.61.4_1",
        "GID_0": "PHL",
        "COUNTRY": "Philippines",
        "GID_1": "PHL.61_1",
        "NAME_1": "Pangasinan",
        "NL_NAME_1": "NA",
        "NAME_2": "Alcala",
        "VARNAME_2": "NA",
        "NL_NAME_2": "NA",
        "TYPE_2": "Bayan|Munisipyo",
        "ENGTYPE_2": "Municipality",
        "CC_2": "15504",
        "HASC_2": "PH.PN.AC"
      },
      "geometry": {
        "type": "MultiPolygon",
        "coordinates": [
          [
            [
              [
                120.5209,
                15.8321
              ],
              [
                120.493,
                15.8318
              ],
              [
                120.4947,
                15.8339
              ],
              [
                120.4894,
                15.8631
              ],
              [
                120.5678,
                15.887
              ],
              [
                120.5587,
                15.8818
              ],
              [
                120.553,
                15.8739
              ],
              [
                120.5601,
                15.8674
              ],
              [
                120.5799,
                15.8577
              ],
              [
                120.573,
                15.8323
              ],
              [
                120.5209,
                15.8321
              ]
            ]
          ]
        ]
      }
    },
    {
      "type": "Feature",
      "properties": {
        "GID_2": "PHL.61.10_1",
        "GID_0": "PHL",
        "COUNTRY": "Philippines",
        "GID_1": "PHL.61_1",
        "NAME_1": "Pangasinan",
        "NL_NAME_1": "NA",
        "NAME_2": "Bautista",
        "VARNAME_2": "NA",
        "NL_NAME_2": "NA",
        "TYPE_2": "Bayan|Munisipyo",
        "ENGTYPE_2": "Municipality",
        "CC_2": "15510",
        "HASC_2": "PH.PN.BU"
      },
      "geometry": {
        "type": "MultiPolygon",
        "coordinates": [
          [
            [
              [
                120.5525,
                15.7814
              ],
              [
                120.55,
                15.773
              ],
              [
                120.5479,
                15.7707
              ],
              [
                120.5306,
                15.7602
              ],
              [
                120.4884,
                15.7997
              ],
              [
                120.4688,
                15.8011
              ],
              [
                120.4683,
                15.8107
              ],
              [
                120.4656,
                15.8161
              ],
              [
                120.466,
                15.8207
              ],
              [
                120.4723,
                15.8243
              ],
              [
                120.4748,
                15.8235
              ],
              [
                120.4773,
                15.8166
              ],
              [
                120.4799,
                15.8163
              ],
              [
                120.4865,
                15.8215
              ],
              [
                120.489,
                15.8255
              ],
              [
                120.4847,
                15.8313
              ],
              [
                120.4867,
                15.832
              ],
              [
                120.573,
                15.8323
              ],
              [
                120.5693,
                15.8176
              ],
              [
                120.5525,
                15.7814
              ]
            ]
          ]
        ]
      }
    },
    {
      "type": "Feature",
      "properties": {
        "GID_2": "PHL.61.12_1",
        "GID_0": "PHL",
        "COUNTRY": "Philippines",
        "GID_1": "PHL.61_1",
        "NAME_1": "Pangasinan",
        "NL_NAME_1": "NA",
        "NAME_2": "Binalonan",
        "VARNAME_2": "NA",
        "NL_NAME_2": "NA",
        "TYPE_2": "Bayan|Munisipyo",
        "ENGTYPE_2": "Municipality",
        "CC_2": "15512",
        "HASC_2": "PH.PN.BN"
      },
      "geometry": {
        "type": "MultiPolygon",
        "coordinates": [
          [
            [
              [
                120.5712,
                16.0198
              ],
              [
                120.5657,
                16.0507
              ],
              [
                120.5596,
                16.0733
              ],
              [
                120.5547,
                16.0836
              ],
              [
                120.5794,
                16.1147
              ],
              [
                120.6294,
                16.1255
              ],
              [
                120.6293,
                16.1244
              ],
              [
                120.6335,
                16.1236
              ],
              [
                120.6349,
                16.1224
              ],
              [
                120.6347,
                16.1137
              ],
              [
                120.6383,
                16.1025
              ],
              [
                120.6366,
                16.0972
              ],
              [
                120.6385,
                16.0906
              ],
              [
                120.6323,
                16.0711
              ],
              [
                120.6316,
                16.0422
              ],
              [
                120.6294,
                16.0376
              ],
              [
                120.6124,
                16.0283
              ],
              [
                120.593,
                16.0135
              ],
              [
                120.5716,
                16.0159
              ],
              [
                120.5712,
                16.0198
              ]
            ]
          ]
        ]
      }
    },
    {
      "type": "Feature",
      "properties": {
        "GID_2": "PHL.61.22_1",
        "GID_0": "PHL",
        "COUNTRY": "Philippines",
        "GID_1": "PHL.61_1",
        "NAME_1": "Pangasinan",
        "NL_NAME_1": "NA",
        "NAME_2": "Laoac",
        "VARNAME_2": "NA",
        "NL_NAME_2": "NA",
        "TYPE_2": "Bayan|Munisipyo",
        "ENGTYPE_2": "Municipality",
        "CC_2": "15548",
        "HASC_2": "PH.PN.LO"
      },
      "geometry": {
        "type": "MultiPolygon",
        "coordinates": [
          [
            [
              [
                120.5664,
                16.0132
              ],
              [
                120.5546,
                16.0057
              ],
              [
                120.5496,
                16.0058
              ],
              [
                120.5385,
                16.009
              ],
              [
                120.5374,
                16.0109
              ],
              [
                120.5413,
                16.0129
              ],
              [
                120.5344,
                16.017
              ],
              [
                120.5347,
                16.0314
              ],
              [
                120.5225,
                16.0331
              ],
              [
                120.5184,
                16.031
              ],
              [
                120.5133,
                16.031
              ],
              [
                120.5115,
                16.0278
              ],
              [
                120.5064,
                16.0279
              ],
              [
                120.5078,
                16.0334
              ],
              [
                120.5052,
                16.036
              ],
              [
                120.5053,
                16.0414
              ],
              [
                120.5012,
                16.0418
              ],
              [
                120.5013,
                16.048
              ],
              [
                120.503,
                16.0518
              ],
              [
                120.514,
                16.0557
              ],
              [
                120.511,
                16.0615
              ],
              [
                120.5128,
                16.0668
              ],
              [
                120.5194,
                16.0654
              ],
              [
                120.5231,
                16.0703
              ],
              [
                120.5248,
                16.0698
              ],
              [
                120.5289,
                16.0828
              ],
              [
                120.5318,
                16.0823
              ],
              [
                120.5378,
                16.0856
              ],
              [
                120.5429,
                16.0833
              ],
              [
                120.5529,
                16.085
              ],
              [
                120.5559,
                16.0822
              ],
              [
                120.5657,
                16.0507
              ],
              [
                120.5712,
                16.0198
              ],
              [
                120.5716,
                16.0159
              ],
              [
                120.5664,
                16.0132
              ]
            ]
          ]
        ]
      }
    },
    {
      "type": "Feature",
      "properties": {
        "GID_2": "PHL.61.31_1",
        "GID_0": "PHL",
        "COUNTRY": "Philippines",
        "GID_1": "PHL.61_1",
        "NAME_1": "Pangasinan",
        "NL_NAME_1": "NA",
        "NAME_2": "Pozzorubio",
        "VARNAME_2": "NA",
        "NL_NAME_2": "NA",
        "TYPE_2": "Bayan|Munisipyo",
        "ENGTYPE_2": "Municipality",
        "CC_2": "15530",
        "HASC_2": "PH.PN.PZ"
      },
      "geometry": {
        "type": "MultiPolygon",
        "coordinates": [
          [
            [
              [
                120.4908,
                16.0915
              ],
              [
                120.4789,
                16.103
              ],
              [
                120.4635,
                16.1273
              ],
              [
                120.4645,
                16.1453
              ],
              [
                120.4719,
                16.1463
              ],
              [
                120.4739,
                16.1481
              ],
              [
                120.5508,
                16.1599
              ],
              [
                120.5509,
                16.1528
              ],
              [
                120.5558,
                16.1438
              ],
              [
                120.5646,
                16.1339
              ],
              [
                120.5684,
                16.1186
              ],
              [
                120.5742,
                16.1125
              ],
              [
                120.5726,
                16.1064
              ],
              [
                120.5547,
                16.0836
              ],
              [
                120.5529,
                16.085
              ],
              [
                120.5429,
                16.0833
              ],
              [
                120.5378,
                16.0856
              ],
              [
                120.5305,
                16.0819
              ],
              [
                120.5182,
                16.082
              ],
              [
                120.4907,
                16.087
              ],
              [
                120.4933,
                16.0896
              ],
              [
                120.4908,
                16.0915
              ]
            ]
          ]
        ]
      }
    },
    {
      "type": "Feature",
      "properties": {
        "GID_2": "PHL.61.41_1",
        "GID_0": "PHL",
        "COUNTRY": "Philippines",
        "GID_1": "PHL.61_1",
        "NAME_1": "Pangasinan",
        "NL_NAME_1": "NA",
        "NAME_2": "SantoTomas",
        "VARNAME_2": "NA",
        "NL_NAME_2": "NA",
        "TYPE_2": "Bayan|Munisipyo",
        "ENGTYPE_2": "Municipality",
        "CC_2": "15540",
        "HASC_2": "PH.PN.SM"
      },
      "geometry": {
        "type": "MultiPolygon",
        "coordinates": [
          [
            [
              [
                120.556,
                15.8786
              ],
              [
                120.5678,
                15.887
              ],
              [
                120.5717,
                15.8837
              ],
              [
                120.575,
                15.8833
              ],
              [
                120.5818,
                15.8852
              ],
              [
                120.5861,
                15.8908
              ],
              [
                120.588,
                15.8891
              ],
              [
                120.5799,
                15.8577
              ],
              [
                120.5693,
                15.8621
              ],
              [
                120.5549,
                15.8714
              ],
              [
                120.553,
                15.8739
              ],
              [
                120.556,
                15.8786
              ]
            ]
          ]
        ]
      }
    },
    {
      "type": "Feature",
      "properties": {
        "GID_2": "PHL.61.42_1",
        "GID_0": "PHL",
        "COUNTRY": "Philippines",
        "GID_1": "PHL.61_1",
        "NAME_1": "Pangasinan",
        "NL_NAME_1": "NA",
        "NAME_2": "Sison",
        "VARNAME_2": "NA",
        "NL_NAME_2": "NA",
        "TYPE_2": "Bayan|Munisipyo",
        "ENGTYPE_2": "Municipality",
        "CC_2": "15541",
        "HASC_2": "PH.PN.SS"
      },
      "geometry": {
        "type": "MultiPolygon",
        "coordinates": [
          [
            [
              [
                120.574,
                16.1105
              ],
              [
                120.5742,
                16.1125
              ],
              [
                120.5684,
                16.1186
              ],
              [
                120.5646,
                16.1339
              ],
              [
                120.5558,
                16.1438
              ],
              [
                120.5509,
                16.1528
              ],
              [
                120.5508,
                16.1599
              ],
              [
                120.4745,
                16.148
              ],
              [
                120.4755,
                16.1512
              ],
              [
                120.4707,
                16.1595
              ],
              [
                120.4705,
                16.1639
              ],
              [
                120.4608,
                16.1819
              ],
              [
                120.4564,
                16.1946
              ],
              [
                120.4505,
                16.2001
              ],
              [
                120.447,
                16.212
              ],
              [
                120.4758,
                16.2136
              ],
              [
                120.4995,
                16.2114
              ],
              [
                120.5011,
                16.2181
              ],
              [
                120.4975,
                16.223
              ],
              [
                120.5063,
                16.2291
              ],
              [
                120.5125,
                16.237
              ],
              [
                120.5474,
                16.2217
              ],
              [
                120.6112,
                16.2046
              ],
              [
                120.6203,
                16.1966
              ],
              [
                120.6223,
                16.1931
              ],
              [
                120.6225,
                16.1876
              ],
              [
                120.6179,
                16.1827
              ],
              [
                120.6184,
                16.1776
              ],
              [
                120.6246,
                16.172
              ],
              [
                120.6347,
                16.1571
              ],
              [
                120.6327,
                16.151
              ],
              [
                120.6332,
                16.1391
              ],
              [
                120.6311,
                16.1285
              ],
              [
                120.6294,
                16.1255
              ],
              [
                120.5794,
                16.1147
              ],
              [
                120.5726,
                16.1064
              ],
              [
                120.574,
                16.1105
              ]
            ]
          ]
        ]
      }
    },
    {
      "type": "Feature",
      "properties": {
        "GID_2": "PHL.61.47_1",
        "GID_0": "PHL",
        "COUNTRY": "Philippines",
        "GID_1": "PHL.61_1",
        "NAME_1": "Pangasinan",
        "NL_NAME_1": "NA",
        "NAME_2": "UrdanetaCity",
        "VARNAME_2": "NA",
        "NL_NAME_2": "NA",
        "TYPE_2": "Lungsod|Siyudad",
        "ENGTYPE_2": "City",
        "CC_2": "15546",
        "HASC_2": "PH.PN.UD"
      },
      "geometry": {
        "type": "MultiPolygon",
        "coordinates": [
          [
            [
              [
                120.5487,
                15.9442
              ],
              [
                120.5223,
                15.9333
              ],
              [
                120.5079,
                15.9253
              ],
              [
                120.5002,
                15.9417
              ],
              [
                120.4984,
                15.9656
              ],
              [
                120.4927,
                15.9799
              ],
              [
                120.4853,
                15.9901
              ],
              [
                120.4745,
                15.9975
              ],
              [
                120.4766,
                15.9983
              ],
              [
                120.4853,
                15.9952
              ],
              [
                120.494,
                16.003
              ],
              [
                120.4968,
                16.0087
              ],
              [
                120.5007,
                16.0097
              ],
              [
                120.5144,
                16.0103
              ],
              [
                120.5292,
                16.0076
              ],
              [
                120.5374,
                16.0109
              ],
              [
                120.5385,
                16.009
              ],
              [
                120.5546,
                16.0057
              ],
              [
                120.5716,
                16.0159
              ],
              [
                120.626,
                16.0125
              ],
              [
                120.6293,
                16.0098
              ],
              [
                120.6305,
                16.0054
              ],
              [
                120.6301,
                15.9789
              ],
              [
                120.6313,
                15.9708
              ],
              [
                120.6298,
                15.9548
              ],
              [
                120.5969,
                15.9524
              ],
              [
                120.5487,
                15.9442
              ]
            ]
          ]
        ]
      }
    },
    {
      "type": "Feature",
      "properties": {
        "GID_2": "PHL.61.48_1",
        "GID_0": "PHL",
        "COUNTRY": "Philippines",
        "GID_1": "PHL.61_1",
        "NAME_1": "Pangasinan",
        "NL_NAME_1": "NA",
        "NAME_2": "Villasis",
        "VARNAME_2": "NA",
        "NL_NAME_2": "NA",
        "TYPE_2": "Bayan|Munisipyo",
        "ENGTYPE_2": "Municipality",
        "CC_2": "15547",
        "HASC_2": "PH.PN.VL"
      },
      "geometry": {
        "type": "MultiPolygon",
        "coordinates": [
          [
            [
              [
                120.521,
                15.8982
              ],
              [
                120.5079,
                15.9253
              ],
              [
                120.5446,
                15.9432
              ],
              [
                120.5969,
                15.9524
              ],
              [
                120.6298,
                15.9548
              ],
              [
                120.6302,
                15.9495
              ],
              [
                120.6325,
                15.9452
              ],
              [
                120.6394,
                15.9385
              ],
              [
                120.6326,
                15.9249
              ],
              [
                120.6225,
                15.9251
              ],
              [
                120.6188,
                15.9225
              ],
              [
                120.6221,
                15.9108
              ],
              [
                120.6185,
                15.9068
              ],
              [
                120.6084,
                15.9007
              ],
              [
                120.5974,
                15.8983
              ],
              [
                120.5904,
                15.8951
              ],
              [
                120.5797,
                15.8843
              ],
              [
                120.5733,
                15.8833
              ],
              [
                120.566,
                15.8869
              ],
              [
                120.5303,
                15.8746
              ],
              [
                120.521,
                15.8982
              ]
            ]
          ]
        ]
      }
    }
  ]
}