{
  "type": "FeatureCollection",
  "features": [
    {
      "type": "Feature",
      "geometry": {
        "type": "Polygon",
        "coordinates": [
          [
            [120.586118, 15.890778],
            [120.587857, 15.888545],
            [120.609, 15.8614],
            [120.6149, 15.846],
            [120.6128, 15.8321],
            [120.6217, 15.8308],
            [120.6519, 15.8299],
            [120.6569, 15.8398],
            [120.6668, 15.841],
            [120.6807, 15.8457],
            [120.6781, 15.8528],
            [120.665371, 15.867261],
            [120.6634, 15.8695],
            [120.662359, 15.872206],
            [120.6522, 15.8986],
            [120.644041, 15.932414],
            [120.6439, 15.933],
            [120.6421, 15.931],
            [120.63882, 15.931143],
            [120.6375, 15.9312],
            [120.636433, 15.930054],
            [120.633718, 15.927135],
            [120.6326, 15.9249],
            [120.631655, 15.924919],
            [120.626338, 15.925024],
            [120.623476, 15.925081],
            [120.62188, 15.924664],
            [120.619801, 15.923203],
            [120.619183, 15.921143],
            [120.6221, 15.9108],
            [120.619214, 15.907593],
            [120.6185, 15.9068],
            [120.617899, 15.906437],
            [120.612027, 15.90289],
            [120.6084, 15.9007],
            [120.597809, 15.898389],
            [120.597114, 15.898169],
            [120.593995, 15.896743],
            [120.586257, 15.890918],
            [120.586118, 15.890778]
          ]
        ]
      },
      "properties": {
        "GID_2": "PHL.61.32_1",
        "GID_0": "PHL",
        "COUNTRY": "Philippines",
        "GID_1": "PHL.61_1",
        "NAME_1": "Pangasinan",
        "NL_NAME_1": "NA",
        "NAME_2": "Rosales",
        "VARNAME_2": "NA",
        "NL_NAME_2": "NA",
        "TYPE_2": "Bayan|Munisipyo",
        "ENGTYPE_2": "Municipality",
        "CC_2": "15531",
        "HASC_2": "PH.PN.RS",
        "District": "6"
      }
    },
    {
      "type": "Feature",
      "geometry": {
        "type": "Polygon",
        "coordinates": [
          [
            [120.594287, 16.014482],
            [120.626, 16.0125],
            [120.6293, 16.0098],
            [120.6305, 16.0054],
            [120.6301, 15.9789],
            [120.6313, 15.9708],
            [120.6298, 15.9548],
            [120.6302, 15.9495],
            [120.6351, 15.949],
            [120.6433, 15.9465],
            [120.646728, 15.948363],
            [120.6479, 15.949],
            [120.64773, 15.949789],
            [120.647264, 15.951951],
            [120.6468, 15.9541],
            [120.6412, 15.9603],
            [120.6381, 15.9652],
            [120.6393, 15.9697],
            [120.6452, 15.9715],
            [120.6568, 15.9796],
            [120.6632, 15.9811],
            [120.6673, 15.9857],
            [120.6782, 15.9842],
            [120.6868, 15.9851],
            [120.689, 15.9865],
            [120.6886, 15.9914],
            [120.6902, 15.9955],
            [120.6955, 15.9979],
            [120.7043, 15.9956],
            [120.708832, 16.001772],
            [120.709132, 16.001993],
            [120.7132, 16.005],
            [120.711166, 16.011018],
            [120.7108, 16.0121],
            [120.710099, 16.012351],
            [120.7095, 16.0131],
            [120.70473, 16.015026],
            [120.70286, 16.01752],
            [120.699058, 16.023646],
            [120.699286, 16.024864],
            [120.7006, 16.0319],
            [120.7039, 16.0349],
            [120.7094, 16.0457],
            [120.7085, 16.0494],
            [120.6608, 16.0464],
            [120.6316, 16.0422],
            [120.6294, 16.0376],
            [120.6124, 16.0283],
            [120.594287, 16.014482]
          ]
        ]
      },
      "properties": {
        "GID_2": "PHL.61.6_1",
        "GID_0": "PHL",
        "COUNTRY": "Philippines",
        "GID_1": "PHL.61_1",
        "NAME_1": "Pangasinan",
        "NL_NAME_1": "NA",
        "NAME_2": "Asingan",
        "VARNAME_2": "NA",
        "NL_NAME_2": "NA",
        "TYPE_2": "Bayan|Munisipyo",
        "ENGTYPE_2": "Municipality",
        "CC_2": "15506",
        "HASC_2": "PH.PN.AI",
        "District": "6"
      }
    },
    {
      "type": "Feature",
      "geometry": {
        "type": "Polygon",
        "coordinates": [
          [
            [120.6807, 15.8457],
            [120.6996, 15.8462],
            [120.7219, 15.853],
            [120.7357, 15.8504],
            [120.738223, 15.851918],
            [120.741261, 15.852464],
            [120.743597, 15.8526],
            [120.745, 15.8539],
            [120.7237, 15.9095],
            [120.719815, 15.943268],
            [120.7179, 15.943],
            [120.717854, 15.9434],
            [120.7175, 15.9465],
            [120.717133, 15.946341],
            [120.7171, 15.9467],
            [120.7101, 15.9433],
            [120.6997, 15.946],
            [120.6911, 15.9446],
            [120.6876, 15.9481],
            [120.6792, 15.9511],
            [120.6735, 15.9489],
            [120.6668, 15.9496],
            [120.659, 15.9481],
            [120.662, 15.9439],
            [120.658497, 15.940397],
            [120.655598, 15.938928],
            [120.647011, 15.934577],
            [120.6439, 15.933],
            [120.644041, 15.932414],
            [120.6522, 15.8986],
            [120.662359, 15.872206],
            [120.6634, 15.8695],
            [120.665371, 15.867261],
            [120.6781, 15.8528],
            [120.6807, 15.8457]
          ]
        ]
      },
      "properties": {
        "GID_2": "PHL.61.7_1",
        "GID_0": "PHL",
        "COUNTRY": "Philippines",
        "GID_1": "PHL.61_1",
        "NAME_1": "Pangasinan",
        "NL_NAME_1": "NA",
        "NAME_2": "Balungao",
        "VARNAME_2": "NA",
        "NL_NAME_2": "NA",
        "TYPE_2": "Bayan|Munisipyo",
        "ENGTYPE_2": "Municipality",
        "CC_2": "15507",
        "HASC_2": "PH.PN.BL",
        "District": "6"
      }
    },
    {
      "type": "Feature",
      "geometry": {
        "type": "Polygon",
        "coordinates": [
          [
            [120.7824, 16.0036],
            [120.7828, 16.0023],
            [120.8902, 16.054],
            [120.8797, 16.0793],
            [120.88, 16.1059],
            [120.8067, 16.0715],
            [120.7628, 16.0476],
            [120.7685, 16.0321],
            [120.7788, 16.0138],
            [120.7824, 16.0036]
          ]
        ]
      },
      "properties": {
        "GID_2": "PHL.61.30_1",
        "GID_0": "PHL",
        "COUNTRY": "Philippines",
        "GID_1": "PHL.61_1",
        "NAME_1": "Pangasinan",
        "NL_NAME_1": "NA",
        "NAME_2": "Natividad",
        "VARNAME_2": "NA",
        "NL_NAME_2": "NA",
        "TYPE_2": "Bayan|Munisipyo",
        "ENGTYPE_2": "Municipality",
        "CC_2": "15529",
        "HASC_2": "PH.PN.NT",
        "District": "6"
      }
    },
    {
      "type": "Feature",
      "geometry": {
        "type": "Polygon",
        "coordinates": [
          [
            [120.6294, 16.1255],
            [120.6293, 16.1244],
            [120.6349, 16.1224],
            [120.6347, 16.1137],
            [120.6383, 16.1025],
            [120.6366, 16.0972],
            [120.6385, 16.0906],
            [120.6323, 16.0711],
            [120.6316, 16.0422],
            [120.6608, 16.0464],
            [120.7085, 16.0494],
            [120.708723, 16.050102],
            [120.710918, 16.057025],
            [120.7202, 16.0519],
            [120.7235, 16.055],
            [120.723578, 16.055828],
            [120.723941, 16.059666],
            [120.7204, 16.0772],
            [120.7221, 16.0863],
            [120.7069, 16.103],
            [120.698, 16.1098],
            [120.6955, 16.1187],
            [120.6878, 16.1249],
            [120.6816, 16.136],
            [120.6736, 16.1383],
            [120.6775, 16.1412],
            [120.6821, 16.1483],
            [120.6872, 16.1476],
            [120.6899, 16.1514],
            [120.697, 16.1552],
            [120.693, 16.1594],
            [120.6826, 16.1593],
            [120.6879, 16.1706],
            [120.6827, 16.1719],
            [120.6807, 16.1745],
            [120.6886, 16.1773],
            [120.6911, 16.1843],
            [120.6954, 16.1842],
            [120.7006, 16.1898],
            [120.6973, 16.1915],
            [120.6553, 16.1877],
            [120.626, 16.2018],
            [120.6112, 16.2046],
            [120.6203, 16.1966],
            [120.6223, 16.1931],
            [120.6225, 16.1876],
            [120.6179, 16.1827],
            [120.6184, 16.1776],
            [120.6246, 16.172],
            [120.6347, 16.1571],
            [120.6327, 16.151],
            [120.6332, 16.1391],
            [120.63261, 16.136124],
            [120.631771, 16.131889],
            [120.6311, 16.1285],
            [120.63003, 16.126611],
            [120.6294, 16.1255]
          ]
        ]
      },
      "properties": {
        "GID_2": "PHL.61.36_1",
        "GID_0": "PHL",
        "COUNTRY": "Philippines",
        "GID_1": "PHL.61_1",
        "NAME_1": "Pangasinan",
        "NL_NAME_1": "NA",
        "NAME_2": "San Manuel",
        "VARNAME_2": "NA",
        "NL_NAME_2": "NA",
        "TYPE_2": "Bayan|Munisipyo",
        "ENGTYPE_2": "Municipality",
        "CC_2": "15535",
        "HASC_2": "PH.PN.SL",
        "District": "6"
      }
    },
    {
      "type": "Feature",
      "geometry": {
        "type": "Polygon",
        "coordinates": [
          [
            [120.88, 16.1059],
            [120.8684, 16.1233],
            [120.8572, 16.1329],
            [120.8414, 16.1715],
            [120.7689, 16.2014],
            [120.6973, 16.1915],
            [120.7006, 16.1898],
            [120.6954, 16.1842],
            [120.6911, 16.1843],
            [120.6886, 16.1773],
            [120.6807, 16.1745],
            [120.6827, 16.1719],
            [120.6879, 16.1706],
            [120.6826, 16.1593],
            [120.693, 16.1594],
            [120.697, 16.1552],
            [120.6899, 16.1514],
            [120.6872, 16.1476],
            [120.6821, 16.1483],
            [120.6775, 16.1412],
            [120.6736, 16.1383],
            [120.6816, 16.136],
            [120.6878, 16.1249],
            [120.6955, 16.1187],
            [120.698, 16.1098],
            [120.7069, 16.103],
            [120.7221, 16.0863],
            [120.7204, 16.0772],
            [120.723941, 16.059666],
            [120.723578, 16.055828],
            [120.7235, 16.055],
            [120.7475, 16.0527],
            [120.7553, 16.0537],
            [120.7573, 16.054],
            [120.7628, 16.0476],
            [120.8067, 16.0715],
            [120.88, 16.1059]
          ]
        ]
      },
      "properties": {
        "GID_2": "PHL.61.37_1",
        "GID_0": "PHL",
        "COUNTRY": "Philippines",
        "GID_1": "PHL.61_1",
        "NAME_1": "Pangasinan",
        "NL_NAME_1": "NA",
        "NAME_2": "San Nicolas",
        "VARNAME_2": "NA",
        "NL_NAME_2": "NA",
        "TYPE_2": "Bayan|Munisipyo",
        "ENGTYPE_2": "Municipality",
        "CC_2": "15536",
        "HASC_2": "PH.PN.SN",
        "District": "6"
      }
    },
    {
      "type": "Feature",
      "geometry": {
        "type": "Polygon",
        "coordinates": [
          [
            [120.719815, 15.943268],
            [120.7198, 15.9434],
            [120.7479, 15.9472],
            [120.7591, 15.9463],
            [120.8322, 15.9563],
            [120.8365, 15.9586],
            [120.8443, 15.9587],
            [120.8534, 15.9644],
            [120.9166, 15.9926],
            [120.9099, 16.0194],
            [120.9028, 16.0298],
            [120.8958, 16.0464],
            [120.8902, 16.054],
            [120.7828, 16.0023],
            [120.7837, 15.9968],
            [120.7825, 15.9899],
            [120.7765, 15.9806],
            [120.7719, 15.978],
            [120.7686, 15.9786],
            [120.7635, 15.9768],
            [120.759435, 15.974721],
            [120.7504, 15.9701],
            [120.741, 15.969],
            [120.7385, 15.967],
            [120.7295, 15.9672],
            [120.7225, 15.9586],
            [120.7175, 15.9465],
            [120.717854, 15.9434],
            [120.7179, 15.943],
            [120.719815, 15.943268]
          ]
        ]
      },
      "properties": {
        "GID_2": "PHL.61.38_1",
        "GID_0": "PHL",
        "COUNTRY": "Philippines",
        "GID_1": "PHL.61_1",
        "NAME_1": "Pangasinan",
        "NL_NAME_1": "NA",
        "NAME_2": "San Quintin",
        "VARNAME_2": "NA",
        "NL_NAME_2": "NA",
        "TYPE_2": "Bayan|Munisipyo",
        "ENGTYPE_2": "Municipality",
        "CC_2": "15537",
        "HASC_2": "PH.PN.SQ",
        "District": "6"
      }
    },
    {
      "type": "Feature",
      "geometry": {
        "type": "Polygon",
        "coordinates": [
          [
            [120.6302, 15.9495],
            [120.6394, 15.9385],
            [120.635, 15.9294],
            [120.636433, 15.930054],
            [120.6375, 15.9312],
            [120.63882, 15.931143],
            [120.6421, 15.931],
            [120.6439, 15.933],
            [120.647011, 15.934577],
            [120.655598, 15.938928],
            [120.658497, 15.940397],
            [120.662, 15.9439],
            [120.659, 15.9481],
            [120.6668, 15.9496],
            [120.6735, 15.9489],
            [120.6792, 15.9511],
            [120.6876, 15.9481],
            [120.6911, 15.9446],
            [120.6997, 15.946],
            [120.7101, 15.9433],
            [120.7171, 15.9467],
            [120.717133, 15.946341],
            [120.7175, 15.9465],
            [120.7225, 15.9586],
            [120.7295, 15.9672],
            [120.7385, 15.967],
            [120.741, 15.969],
            [120.7504, 15.9701],
            [120.759435, 15.974721],
            [120.753, 15.9818],
            [120.7256, 16.0011],
            [120.709132, 16.001993],
            [120.708832, 16.001772],
            [120.7043, 15.9956],
            [120.6955, 15.9979],
            [120.6902, 15.9955],
            [120.6886, 15.9914],
            [120.689, 15.9865],
            [120.6868, 15.9851],
            [120.6782, 15.9842],
            [120.6673, 15.9857],
            [120.6632, 15.9811],
            [120.6568, 15.9796],
            [120.6452, 15.9715],
            [120.6393, 15.9697],
            [120.6381, 15.9652],
            [120.6412, 15.9603],
            [120.6468, 15.9541],
            [120.647264, 15.951951],
            [120.64773, 15.949789],
            [120.6479, 15.949],
            [120.646728, 15.948363],
            [120.6433, 15.9465],
            [120.6351, 15.949],
            [120.6302, 15.9495]
          ]
        ]
      },
      "properties": {
        "GID_2": "PHL.61.40_1",
        "GID_0": "PHL",
        "COUNTRY": "Philippines",
        "GID_1": "PHL.61_1",
        "NAME_1": "Pangasinan",
        "NL_NAME_1": "NA",
        "NAME_2": "Santa Maria",
        "VARNAME_2": "NA",
        "NL_NAME_2": "NA",
        "TYPE_2": "Bayan|Munisipyo",
        "ENGTYPE_2": "Municipality",
        "CC_2": "15539",
        "HASC_2": "PH.PN.ST",
        "District": "6"
      }
    },
    {
      "type": "Feature",
      "geometry": {
        "type": "Polygon",
        "coordinates": [
          [
            [120.709132, 16.001993],
            [120.7256, 16.0011],
            [120.753, 15.9818],
            [120.759435, 15.974721],
            [120.7635, 15.9768],
            [120.7686, 15.9786],
            [120.7719, 15.978],
            [120.7765, 15.9806],
            [120.7825, 15.9899],
            [120.7837, 15.9968],
            [120.7828, 16.0023],
            [120.7824, 16.0036],
            [120.7788, 16.0138],
            [120.7685, 16.0321],
            [120.7628, 16.0476],
            [120.7573, 16.054],
            [120.7553, 16.0537],
            [120.7475, 16.0527],
            [120.7235, 16.055],
            [120.7202, 16.0519],
            [120.710918, 16.057025],
            [120.708723, 16.050102],
            [120.7085, 16.0494],
            [120.7094, 16.0457],
            [120.7039, 16.0349],
            [120.7006, 16.0319],
            [120.699286, 16.024864],
            [120.699058, 16.023646],
            [120.70286, 16.01752],
            [120.70473, 16.015026],
            [120.7095, 16.0131],
            [120.710099, 16.012351],
            [120.7108, 16.0121],
            [120.711166, 16.011018],
            [120.7132, 16.005],
            [120.709132, 16.001993]
          ]
        ]
      },
      "properties": {
        "GID_2": "PHL.61.44_1",
        "GID_0": "PHL",
        "COUNTRY": "Philippines",
        "GID_1": "PHL.61_1",
        "NAME_1": "Pangasinan",
        "NL_NAME_1": "NA",
        "NAME_2": "Tayug",
        "VARNAME_2": "NA",
        "NL_NAME_2": "NA",
        "TYPE_2": "Bayan|Munisipyo",
        "ENGTYPE_2": "Municipality",
        "CC_2": "15543",
        "HASC_2": "PH.PN.TY",
        "District": "6"
      }
    },
    {
      "type": "Feature",
      "geometry": {
        "type": "Polygon",
        "coordinates": [
          [
            [120.745, 15.8539],
            [120.7436, 15.8526],
            [120.7476, 15.8506],
            [120.7575, 15.8496],
            [120.7751, 15.8333],
            [120.7958, 15.8199],
            [120.804414, 15.810021],
            [120.809226, 15.806351],
            [120.819124, 15.792984],
            [120.823482, 15.792809],
            [120.82557, 15.796391],
            [120.83229, 15.807575],
            [120.837647, 15.813428],
            [120.851721, 15.817447],
            [120.858441, 15.820705],
            [120.860949, 15.826175],
            [120.85933, 15.830354],
            [120.860655, 15.835877],
            [120.864188, 15.838781],
            [120.865292, 15.841684],
            [120.866765, 15.845295],
            [120.8666, 15.8545],
            [120.8688, 15.8583],
            [120.8693, 15.8658],
            [120.8756, 15.8704],
            [120.8771, 15.8751],
            [120.8778, 15.888],
            [120.8834, 15.8908],
            [120.8893, 15.9027],
            [120.9032, 15.9112],
            [120.9063, 15.9191],
            [120.9185, 15.9702],
            [120.9223, 15.9789],
            [120.9166, 15.9926],
            [120.8534, 15.9644],
            [120.8443, 15.9587],
            [120.8365, 15.9586],
            [120.8322, 15.9563],
            [120.7591, 15.9463],
            [120.7479, 15.9472],
            [120.7198, 15.9434],
            [120.719815, 15.943268],
            [120.7237, 15.9095],
            [120.745, 15.8539]
          ]
        ]
      },
      "properties": {
        "GID_2": "PHL.61.45_1",
        "GID_0": "PHL",
        "COUNTRY": "Philippines",
        "GID_1": "PHL.61_1",
        "NAME_1": "Pangasinan",
        "NL_NAME_1": "NA",
        "NAME_2": "Umingan",
        "VARNAME_2": "NA",
        "NL_NAME_2": "NA",
        "TYPE_2": "Bayan|Munisipyo",
        "ENGTYPE_2": "Municipality",
        "CC_2": "15544",
        "HASC_2": "PH.PN.UI",
        "District": "6"
      }
    }
  ]
}
